{
  "type": "FeatureCollection",
  "features": [
    {
      "type": "Feature",
      "properties": {
        "name": "Khargone City",
        "city": "Khargone",
        "state": "Madhya Pradesh"
      },
      "geometry": {
        "type": "Polygon",
        "coordinates": [[
          [75.567, 21.853],
          [75.592, 21.866],
          [75.624, 21.867],
          [75.646, 21.852],
          [75.661, 21.829],
          [75.660, 21.804],
          [75.643, 21.782],
          [75.617, 21.770],
          [75.588, 21.771],
          [75.564, 21.785],
          [75.551, 21.808],
          [75.552, 21.833],
          [75.567, 21.853]
        ]]
      }
    }
  ]
}
